NORAD_CAT_ID,OBJECT_NAME,OBJECT_TYPE,EPOCH,MEAN_MOTION,ECCENTRICITY,INCLINATION,RA_OF_ASC_NODE,ARG_OF_PERICENTER,MEAN_ANOMALY,BSTAR,MEAN_MOTION_DOT,MEAN_MOTION_DDOT,TLE_LINE0,TLE_LINE1,TLE_LINE2,SEMIMAJOR_AXIS,PERIOD,APOGEE,PERIGEE,DECAYED
52126.0,STARLINK-3732,PAYLOAD,2023-12-30 14:00:03,15.08849938,0.0001538,53.2177,60.9372,95.0174,265.0993,0.0001071,1.417e-05,0.0,0 STARLINK-3732,1 52126U 22029AQ  23364.58337149  .00001417  00000-0  10710-3 0  9994,2 52126  53.2177  60.9372 0001538  95.0174 265.0993 15.08849938100137,6917.85,95.437,540.779,538.651,0.0
52126.0,STARLINK-3732,PAYLOAD,2023-12-31 04:18:33,15.08831594,0.0001459,53.2174,58.2613,81.2693,278.8464,-2.9383e-05,-7.55e-06,0.0,0 STARLINK-3732,1 52126U 22029AQ  23365.17954916 -.00000755  00000-0 -29383-4 0  9990,2 52126  53.2174  58.2613 0001459  81.2693 278.8464 15.08831594100221,6917.906,95.438,540.78,538.762,0.0
52126.0,STARLINK-3732,PAYLOAD,2023-12-31 09:04:42,15.08834334,0.0001462,53.2176,57.3691,89.5694,270.5466,-2.9246e-07,-2.93e-06,0.0,0 STARLINK-3732,1 52126U 22029AQ  23365.37826757 -.00000293  00000-0 -29246-6 0  9990,2 52126  53.2176  57.3691 0001462  89.5694 270.5466 15.08834334100254,6917.898,95.438,540.774,538.751,0.0
52126.0,STARLINK-3732,PAYLOAD,2024-01-01 10:30:52,15.08838839,0.0001477,53.2176,52.6112,93.741,266.3751,4.5195e-05,4.31e-06,0.0,0 STARLINK-3732,1 52126U 22029AQ  24001.43810588  .00000431  00000-0  45195-4 0  9991,2 52126  53.2176  52.6112 0001477  93.7410 266.3751 15.08838839100411,6917.884,95.438,540.771,538.727,0.0
52126.0,STARLINK-3732,PAYLOAD,2024-01-02 11:57:02,15.08843351,0.0001487,53.2177,47.8521,85.991,274.1252,0.00013404,1.846e-05,0.0,0 STARLINK-3732,1 52126U 22029AQ  24002.49794332  .00001846  00000-0  13404-3 0  9994,2 52126  53.2177  47.8521 0001487  85.9910 274.1252 15.08843351100576,6917.87,95.437,540.764,538.706,0.0
52126.0,STARLINK-3732,PAYLOAD,2024-01-03 11:47:49,15.08837998,0.0001508,53.2179,43.3908,90.1774,269.9391,4.0775e-05,3.61e-06,0.0,0 STARLINK-3732,1 52126U 22029AQ  24003.49155079  .00000361  00000-0  40775-4 0  9997,2 52126  53.2179  43.3908 0001508  90.1774 269.9391 15.08837998100721,6917.887,95.438,540.795,538.708,0.0
52126.0,STARLINK-3732,PAYLOAD,2024-01-04 10:03:13,15.08847806,0.0001402,53.2178,39.229,93.5634,266.5518,3.4811e-05,2.66e-06,0.0,0 STARLINK-3732,1 52126U 22029AQ  24004.41890425  .00000266  00000-0  34811-4 0  9999,2 52126  53.2178  39.2290 0001402  93.5634 266.5518 15.08847806100861,6917.857,95.437,540.691,538.752,0.0
52126.0,STARLINK-3732,PAYLOAD,2024-01-05 01:57:04,15.08842132,0.0001615,53.2178,36.2605,84.8014,275.3162,7.7705e-05,9.49e-06,0.0,0 STARLINK-3732,1 52126U 22029AQ  24005.08130752  .00000949  00000-0  77705-4 0  9990,2 52126  53.2178  36.2605 0001615  84.8014 275.3162 15.08842132100960,6917.874,95.437,540.856,538.622,0.0
52126.0,STARLINK-3732,PAYLOAD,2024-01-05 08:18:38,15.08814293,0.000174,53.2189,35.0671,69.394,290.7239,0.00040691,6.189e-05,0.0,0 STARLINK-3732,1 52126U 22029AQ  24005.34627513  .00006189  00000-0  40691-3 0  9990,2 52126  53.2189  35.0671 0001740  69.3940 290.7239 15.08814293101006,6917.959,95.439,541.028,538.62,0.0
52126.0,STARLINK-3732,PAYLOAD,2024-01-06 04:58:38,15.08843317,0.00016,53.2177,31.2014,93.4638,266.6538,3.3954e-05,2.52e-06,0.0,0 STARLINK-3732,1 52126U 22029AQ  24006.20738715  .00000252  00000-0  33954-4 0  9993,2 52126  53.2177  31.2014 0001600  93.4638 266.6538 15.08843317101136,6917.87,95.437,540.842,538.628,0.0
52126.0,STARLINK-3732,PAYLOAD,2024-01-06 08:09:24,15.08844501,0.0001594,53.2181,30.6067,95.1926,264.9248,3.8706e-05,3.28e-06,0.0,0 STARLINK-3732,1 52126U 22029AQ  24006.33986584  .00000328  00000-0  38706-4 0  9990,2 52126  53.2181  30.6067 0001594  95.1926 264.9248 15.08844501101150,6917.867,95.437,540.834,538.629,0.0
52126.0,STARLINK-3732,PAYLOAD,2024-01-07 01:38:39,15.08836814,0.0001749,53.2189,27.3351,104.6096,255.509,2.1282e-05,5.1e-07,0.0,0 STARLINK-3732,1 52126U 22029AQ  24007.06851063  .00000051  00000-0  21282-4 0  9998,2 52126  53.2189  27.3351 0001749 104.6096 255.5090 15.08836814101264,6917.89,95.438,540.965,538.545,0.0
52126.0,STARLINK-3732,PAYLOAD,2024-01-07 11:10:58,15.08839037,0.0001663,53.2187,25.5493,98.6874,261.4306,2.3373e-05,8.4e-07,0.0,0 STARLINK-3732,1 52126U 22029AQ  24007.46594992  .00000084  00000-0  23373-4 0  9996,2 52126  53.2187  25.5493 0001663  98.6874 261.4306 15.08839037101323,6917.883,95.438,540.899,538.598,0.0
52126.0,STARLINK-3732,PAYLOAD,2024-01-08 06:15:35,15.08840251,0.0001688,53.2186,21.9801,100.4065,259.7117,6.1544e-05,6.92e-06,0.0,0 STARLINK-3732,1 52126U 22029AQ  24008.26082902  .00000692  00000-0  61544-4 0  9995,2 52126  53.2186  21.9801 0001688 100.4065 259.7117 15.08840251101449,6917.88,95.438,540.912,538.577,0.0
52126.0,STARLINK-3732,PAYLOAD,2024-01-09 10:52:32,15.08838613,0.0001636,53.2182,16.6269,99.075,261.0427,5.9293e-05,6.56e-06,0.0,0 STARLINK-3732,1 52126U 22029AQ  24009.45315298  .00000656  00000-0  59293-4 0  9992,2 52126  53.2182  16.6269 0001636  99.0750 261.0427 15.08838613101620,6917.885,95.438,540.881,538.618,0.0
52126.0,STARLINK-3732,PAYLOAD,2024-01-10 09:07:56,15.08843123,0.0001576,53.2177,12.4639,94.9734,265.1438,6.1196e-05,6.86e-06,0.0,0 STARLINK-3732,1 52126U 22029AQ  24010.38051203  .00000686  00000-0  61196-4 0  9997,2 52126  53.2177  12.4639 0001576  94.9734 265.1438 15.08843123101762,6917.871,95.437,540.826,538.646,0.0
52126.0,STARLINK-3732,PAYLOAD,2024-01-10 23:26:24,15.08838791,0.0001468,53.2169,9.7897,95.229,264.887,3.1847e-05,2.19e-06,0.0,0 STARLINK-3732,1 52126U 22029AQ  24010.97667749  .00000219  00000-0  31847-4 0  9992,2 52126  53.2169   9.7897 0001468  95.2290 264.8870 15.08838791101850,6917.884,95.438,540.765,538.734,0.0
52126.0,STARLINK-3732,PAYLOAD,2024-01-11 08:58:43,15.0884581,0.0001546,53.2181,8.0007,103.0173,257.0992,0.00013642,1.884e-05,0.0,0 STARLINK-3732,1 52126U 22029AQ  24011.37410928  .00001884  00000-0  13642-3 0  9993,2 52126  53.2181   8.0007 0001546 103.0173 257.0992 15.08845810101910,6917.863,95.437,540.797,538.658,0.0
52126.0,STARLINK-3732,PAYLOAD,2024-01-12 08:49:29,15.0885328,0.0001487,53.2176,3.5407,109.0467,251.0686,9.1754e-05,1.173e-05,0.0,0 STARLINK-3732,1 52126U 22029AQ  24012.36770482  .00001173  00000-0  91754-4 0  9999,2 52126  53.2176   3.5407 0001487 109.0467 251.0686 15.08853280102065,6917.84,95.437,540.733,538.676,0.0
52126.0,STARLINK-3732,PAYLOAD,2024-01-12 23:07:59,15.08835027,0.0001667,53.2178,0.8639,103.6557,256.462,-1.4396e-05,-5.17e-06,0.0,0 STARLINK-3732,1 52126U 22029AQ  24012.96388189 -.00000517  00000-0 -14396-4 0  9994,2 52126  53.2178   0.8639 0001667 103.6557 256.4620 15.08835027102150,6917.896,95.438,540.914,538.607,0.0
52126.0,STARLINK-3732,PAYLOAD,2024-01-13 03:54:08,15.08840109,0.000213,53.2183,359.973,110.4991,249.623,1.4918e-05,-5.1e-07,0.0,0 STARLINK-3732,1 52126U 22029AQ  24013.16259733 -.00000051  00000-0  14918-4 0  9991,2 52126  53.2183 359.9730 0002130 110.4991 249.6230 15.08840109102181,6917.88,95.438,541.219,538.272,0.0
52126.0,STARLINK-3732,PAYLOAD,2024-01-13 05:29:31,15.08838512,0.0001599,53.2178,359.6792,93.1507,266.9668,1.9373e-05,2e-07,0.0,0 STARLINK-3732,1 52126U 22029AQ  24013.22884025  .00000020  00000-0  19373-4 0  9991,2 52126  53.2178 359.6792 0001599  93.1507 266.9668 15.08838512102191,6917.885,95.438,540.856,538.644,0.0
52126.0,STARLINK-3732,PAYLOAD,2024-01-14 08:31:04,15.08848811,0.0001741,53.2181,354.6234,120.8001,239.3162,0.00027918,4.159e-05,0.0,0 STARLINK-3732,1 52126U 22029AQ  24014.35491570  .00004159  00000-0  27918-3 0  9995,2 52126  53.2181 354.6234 0001741 120.8001 239.3162 15.08848811102362,6917.853,95.437,540.923,538.514,0.0
52126.0,STARLINK-3732,PAYLOAD,2024-01-14 22:49:33,15.08841089,0.0001599,53.2179,351.9447,100.1312,259.9861,8.4061e-05,1.05e-05,0.0,0 STARLINK-3732,1 52126U 22029AQ  24014.95108116  .00001050  00000-0  84061-4 0  9992,2 52126  53.2179 351.9447 0001599 100.1312 259.9861 15.08841089102456,6917.877,95.437,540.848,538.636,0.0
52126.0,STARLINK-3732,PAYLOAD,2024-01-15 03:35:42,15.08846414,0.0001775,53.2185,351.0564,105.3792,254.7396,0.00021843,3.191e-05,0.0,0 STARLINK-3732,1 52126U 22029AQ  24015.14979776  .00003191  00000-0  21843-3 0  9998,2 52126  53.2185 351.0564 0001775 105.3792 254.7396 15.08846414102485,6917.861,95.437,540.954,538.498,0.0
52126.0,STARLINK-3732,PAYLOAD,2024-01-15 22:40:20,15.08840368,0.00018,53.2184,347.4852,105.7828,254.3363,-4.7478e-05,-1.044e-05,0.0,0 STARLINK-3732,1 52126U 22029AQ  24015.94468075 -.00001044  00000-0 -47478-4 0  9991,2 52126  53.2184 347.4852 0001800 105.7828 254.3363 15.08840368102602,6917.879,95.438,540.989,538.499,0.0
52126.0,STARLINK-3732,PAYLOAD,2024-01-16 08:12:39,15.08842899,0.0001799,53.2178,345.6998,111.5302,248.5882,1.1218e-05,-1.1e-06,0.0,0 STARLINK-3732,1 52126U 22029AQ  24016.34211919 -.00000110  00000-0  11218-4 0  9994,2 52126  53.2178 345.6998 0001799 111.5302 248.5882 15.08842899102663,6917.872,95.437,540.981,538.492,0.0
52126.0,STARLINK-3732,PAYLOAD,2024-01-17 03:17:16,15.08840816,0.0001768,53.2175,342.1298,109.4158,250.7025,8.6959e-05,1.096e-05,0.0,0 STARLINK-3732,1 52126U 22029AQ  24017.13700092  .00001096  00000-0  86959-4 0  9994,2 52126  53.2175 342.1298 0001768 109.4158 250.7025 15.08840816102780,6917.878,95.438,540.966,538.52,0.0
52126.0,STARLINK-3732,PAYLOAD,2024-01-17 04:52:39,15.0884952,0.0001566,53.218,341.8311,92.5161,267.6011,2.8609e-05,1.67e-06,0.0,0 STARLINK-3732,1 52126U 22029AQ  24017.20323687  .00000167  00000-0  28609-4 0  9999,2 52126  53.2180 341.8311 0001566  92.5161 267.6011 15.08849520102794,6917.851,95.437,540.8,538.633,0.0
52126.0,STARLINK-3732,PAYLOAD,2024-01-18 03:08:04,15.08835603,0.0001811,53.2191,337.6804,73.3792,286.7398,3.4565e-05,2.62e-06,0.0,0 STARLINK-3732,1 52126U 22029AQ  24018.13060982  .00000262  00000-0  34565-4 0  9992,2 52126  53.2191 337.6804 0001811  73.3792 286.7398 15.08835603102939,6917.894,95.438,541.012,538.506,0.0
